ADRAS-J                 
1 58992U 24034A   24281.17173000  .00017215  00000+0  15173-2 0  9996
2 58992  98.2268 259.4705 0044576  42.5777 317.8884 14.95742661 34595
